{"type": "FeatureCollection", "features": [ {"type": "Feature", "properties": {"norad_id": 29973, "name": "FENGYUN 1C DEB", "group": "fengyun-1c-debris", "lat": 26.465623286931564, "lon": -26.908462722138648, "alt_km": 907.162594087069, "timestamp": "2025-12-02T19:35:50.828662+00:00", "meta": {"OBJECT_NAME": "FENGYUN 1C DEB", "OBJECT_ID": "1999-025KX", "EPOCH": "2025-12-02T11:39:19.175040", "MEAN_MOTION": 14.06501082, "ECCENTRICITY": 0.0058885, "INCLINATION": 98.8424, "RA_OF_ASC_NODE": 337.2128, "ARG_OF_PERICENTER": 177.643, "MEAN_ANOMALY": 334.9433, "EPHEMERIS_TYPE": 0, "CLASSIFICATION_TYPE": "U", "NORAD_CAT_ID": 29973, "ELEMENT_SET_NO": 999, "REV_AT_EPOCH": 96574, "BSTAR": 0.000757, "MEAN_MOTION_DOT": 1.229e-05, "MEAN_MOTION_DDOT": 0}, "tle": {"line1": "1 29973U 99025KX  25336.48563860  .00001229  00000+0  75700-3 0  9999", "line2": "2 29973  98.8424 337.2128 0058885 177.6430 334.9433 14.06501082965742"}}, "geometry": {"type": "Point", "coordinates": [-26.908462722138648, 26.465623286931564]}}, {"type": "Feature", "properties": {"norad_id": 29974, "name": "FENGYUN 1C DEB", "group": "fengyun-1c-debris", "lat": -49.33818672338219, "lon": 71.531988960179, "alt_km": 882.1339572433226, "timestamp": "2025-12-02T19:35:50.828673+00:00", "meta": {"OBJECT_NAME": "FENGYUN 1C DEB", "OBJECT_ID": "1999-025KY", "EPOCH": "2025-12-02T04:53:59.550144", "MEAN_MOTION": 14.14771586, "ECCENTRICITY": 0.0047498, "INCLINATION": 98.8956, "RA_OF_ASC_NODE": 60.4164, "ARG_OF_PERICENTER": 111.7226, "MEAN_ANOMALY": 321.0645, "EPHEMERIS_TYPE": 0, "CLASSIFICATION_TYPE": "U", "NORAD_CAT_ID": 29974, "ELEMENT_SET_NO": 999, "REV_AT_EPOCH": 96776, "BSTAR": 0.0014704, "MEAN_MOTION_DOT": 2.821e-05, "MEAN_MOTION_DDOT": 0}, "tle": {"line1": "1 29974U 99025KY  25336.20416146  .00002821  00000+0  14704-2 0  9999", "line2": "2 29974  98.8956  60.4164 0047498 111.7226 321.0645 14.14771586967761"}}, "geometry": {"type": "Point", "coordinates": [71.531988960179, -49.33818672338219]}}, {"type": "Feature", "properties": {"norad_id": 29975, "name": "FENGYUN 1C DEB", "group": "fengyun-1c-debris", "lat": -6.1595775175330205, "lon": -163.30825548501286, "alt_km": 972.4335247550798, "timestamp": "2025-12-02T19:35:50.828683+00:00", "meta": {"OBJECT_NAME": "FENGYUN 1C DEB", "OBJECT_ID": "1999-025KZ", "EPOCH": "2025-12-02T08:42:39.254976", "MEAN_MOTION": 13.98021357, "ECCENTRICITY": 0.0114287, "INCLINATION": 99.3415, "RA_OF_ASC_NODE": 17.2481, "ARG_OF_PERICENTER": 41.9988, "MEAN_ANOMALY": 21.6699, "EPHEMERIS_TYPE": 0, "CLASSIFICATION_TYPE": "U", "NORAD_CAT_ID": 29975, "ELEMENT_SET_NO": 999, "REV_AT_EPOCH": 96292, "BSTAR": 0.00018768, "MEAN_MOTION_DOT": 2.36e-06, "MEAN_MOTION_DDOT": 0}, "tle": {"line1": "1 29975U 99025KZ  25336.36295434  .00000236  00000+0  18768-3 0  9995", "line2": "2 29975  99.3415  17.2481 0114287  41.9988  21.6699 13.98021357962920"}}, "geometry": {"type": "Point", "coordinates": [-163.30825548501286, -6.1595775175330205]}}, {"type": "Feature", "properties": {"norad_id": 29976, "name": "FENGYUN 1C DEB", "group": "fengyun-1c-debris", "lat": 2.4888300901465783, "lon": -25.99870896336993, "alt_km": 916.5529381837641, "timestamp": "2025-12-02T19:35:50.828694+00:00", "meta": {"OBJECT_NAME": "FENGYUN 1C DEB", "OBJECT_ID": "1999-025LA", "EPOCH": "2025-12-02T11:45:34.955424", "MEAN_MOTION": 13.98094044, "ECCENTRICITY": 0.0267512, "INCLINATION": 98.9182, "RA_OF_ASC_NODE": 334.0746, "ARG_OF_PERICENTER": 268.0044, "MEAN_ANOMALY": 248.7914, "EPHEMERIS_TYPE": 0, "CLASSIFICATION_TYPE": "U", "NORAD_CAT_ID": 29976, "ELEMENT_SET_NO": 999, "REV_AT_EPOCH": 96193, "BSTAR": 0.00027449, "MEAN_MOTION_DOT": 4.84e-06, "MEAN_MOTION_DDOT": 0}, "tle": {"line1": "1 29976U 99025LA  25336.48998791  .00000484  00000+0  27449-3 0  9996", "line2": "2 29976  98.9182 334.0746 0267512 268.0044 248.7914 13.98094044961931"}}, "geometry": {"type": "Point", "coordinates": [-25.99870896336993, 2.4888300901465783]}}, {"type": "Feature", "properties": {"norad_id": 29977, "name": "FENGYUN 1C DEB", "group": "fengyun-1c-debris", "lat": 44.088279848768074, "lon": -168.633690474971, "alt_km": 918.018541606566, "timestamp": "2025-12-02T19:35:50.828704+00:00", "meta": {"OBJECT_NAME": "FENGYUN 1C DEB", "OBJECT_ID": "1999-025LB", "EPOCH": "2025-12-01T21:13:36.929280", "MEAN_MOTION": 14.05007041, "ECCENTRICITY": 0.01291199, "INCLINATION": 98.3966, "RA_OF_ASC_NODE": 198.7288, "ARG_OF_PERICENTER": 287.8545, "MEAN_ANOMALY": 83.6465, "EPHEMERIS_TYPE": 0, "CLASSIFICATION_TYPE": "U", "NORAD_CAT_ID": 29977, "ELEMENT_SET_NO": 999, "REV_AT_EPOCH": 96208, "BSTAR": 0.001444602, "MEAN_MOTION_DOT": 2.466e-05, "MEAN_MOTION_DDOT": 0}, "tle": {"line1": "1 29977U 99025LB  25335.88445520  .00002466  00000+0  14446-2 0  9991", "line2": "2 29977  98.3966 198.7288 0129119 287.8545  83.6465 14.05007041962081"}}, "geometry": {"type": "Point", "coordinates": [-168.633690474971, 44.088279848768074]}}, {"type": "Feature", "properties": {"norad_id": 29978, "name": "FENGYUN 1C DEB", "group": "fengyun-1c-debris", "lat": 80.42001038588774, "lon": -81.54304104950964, "alt_km": 846.0772398859381, "timestamp": "2025-12-02T19:35:50.828715+00:00", "meta": {"OBJECT_NAME": "FENGYUN 1C DEB", "OBJECT_ID": "1999-025LC", "EPOCH": "2025-12-02T02:05:51.082656", "MEAN_MOTION": 13.95902829, "ECCENTRICITY": 0.00770264, "INCLINATION": 99.0631, "RA_OF_ASC_NODE": 26.7083, "ARG_OF_PERICENTER": 81.1186, "MEAN_ANOMALY": 309.5308, "EPHEMERIS_TYPE": 0, "CLASSIFICATION_TYPE": "U", "NORAD_CAT_ID": 29978, "ELEMENT_SET_NO": 999, "REV_AT_EPOCH": 96168, "BSTAR": 0.00029546219, "MEAN_MOTION_DOT": 3.71e-06, "MEAN_MOTION_DDOT": 0}, "tle": {"line1": "1 29978U 99025LC  25336.08739679  .00000371  00000+0  29546-3 0  9997", "line2": "2 29978  99.0631  26.7083 0077026  81.1186 309.5308 13.95902829961684"}}, "geometry": {"type": "Point", "coordinates": [-81.54304104950964, 80.42001038588774]}}, {"type": "Feature", "properties": {"norad_id": 29979, "name": "FENGYUN 1C DEB", "group": "fengyun-1c-debris", "lat": 62.755672468514575, "lon": -162.9154398651334, "alt_km": 780.0023828640742, "timestamp": "2025-12-02T19:35:50.828725+00:00", "meta": {"OBJECT_NAME": "FENGYUN 1C DEB", "OBJECT_ID": "1999-025LD", "EPOCH": "2025-12-02T02:32:38.948640", "MEAN_MOTION": 14.25924871, "ECCENTRICITY": 0.01070195, "INCLINATION": 98.3715, "RA_OF_ASC_NODE": 359.7882, "ARG_OF_PERICENTER": 194.1623, "MEAN_ANOMALY": 237.5737, "EPHEMERIS_TYPE": 0, "CLASSIFICATION_TYPE": "U", "NORAD_CAT_ID": 29979, "ELEMENT_SET_NO": 999, "REV_AT_EPOCH": 97922, "BSTAR": 0.00052214922, "MEAN_MOTION_DOT": 1.28e-05, "MEAN_MOTION_DDOT": 0}, "tle": {"line1": "1 29979U 99025LD  25336.10600635  .00001280  00000+0  52215-3 0  9999", "line2": "2 29979  98.3715 359.7882 0107019 194.1623 237.5737 14.25924871979223"}}, "geometry": {"type": "Point", "coordinates": [-162.9154398651334, 62.755672468514575]}}, {"type": "Feature", "properties": {"norad_id": 29980, "name": "FENGYUN 1C DEB", "group": "fengyun-1c-debris", "lat": 27.493305499680712, "lon": 142.0232530180923, "alt_km": 893.6656493364044, "timestamp": "2025-12-02T19:35:50.828736+00:00", "meta": {"OBJECT_NAME": "FENGYUN 1C DEB", "OBJECT_ID": "1999-025LE", "EPOCH": "2025-12-02T11:01:08.379264", "MEAN_MOTION": 14.06305022, "ECCENTRICITY": 0.0086723, "INCLINATION": 98.5516, "RA_OF_ASC_NODE": 146.1767, "ARG_OF_PERICENTER": 277.1978, "MEAN_ANOMALY": 101.2266, "EPHEMERIS_TYPE": 0, "CLASSIFICATION_TYPE": "U", "NORAD_CAT_ID": 29980, "ELEMENT_SET_NO": 999, "REV_AT_EPOCH": 96848, "BSTAR": 0.00023012, "MEAN_MOTION_DOT": 3.51e-06, "MEAN_MOTION_DDOT": 0}, "tle": {"line1": "1 29980U 99025LE  25336.45912476  .00000351  00000+0  23012-3 0  9999", "line2": "2 29980  98.5516 146.1767 0086723 277.1978 101.2266 14.06305022968489"}}, "geometry": {"type": "Point", "coordinates": [142.0232530180923, 27.493305499680712]}}, {"type": "Feature", "properties": {"norad_id": 29982, "name": "FENGYUN 1C DEB", "group": "fengyun-1c-debris", "lat": 71.61295600295064, "lon": 126.74182655824244, "alt_km": 700.8404307811779, "timestamp": "2025-12-02T19:35:50.828746+00:00", "meta": {"OBJECT_NAME": "FENGYUN 1C DEB", "OBJECT_ID": "1999-025LG", "EPOCH": "2025-12-02T11:19:25.896000", "MEAN_MOTION": 14.66749936, "ECCENTRICITY": 0.0122382, "INCLINATION": 99.4016, "RA_OF_ASC_NODE": 156.2447, "ARG_OF_PERICENTER": 319.6652, "MEAN_ANOMALY": 93.977, "EPHEMERIS_TYPE": 0, "CLASSIFICATION_TYPE": "U", "NORAD_CAT_ID": 29982, "ELEMENT_SET_NO": 999, "REV_AT_EPOCH": 133, "BSTAR": 0.00076021, "MEAN_MOTION_DOT": 4.669e-05, "MEAN_MOTION_DDOT": 0}, "tle": {"line1": "1 29982U 99025LG  25336.47182750  .00004669  00000+0  76021-3 0  9991", "line2": "2 29982  99.4016 156.2447 0122382 319.6652  93.9770 14.66749936  1337"}}, "geometry": {"type": "Point", "coordinates": [126.74182655824244, 71.61295600295064]}}, {"type": "Feature", "properties": {"norad_id": 29985, "name": "FENGYUN 1C DEB", "group": "fengyun-1c-debris", "lat": -2.9331839554263994, "lon": 171.73762020331372, "alt_km": 850.0108469164388, "timestamp": "2025-12-02T19:35:50.828757+00:00", "meta": {"OBJECT_NAME": "FENGYUN 1C DEB", "OBJECT_ID": "1999-025LK", "EPOCH": "2025-12-02T12:29:08.658240", "MEAN_MOTION": 14.1032062, "ECCENTRICITY": 0.0027721, "INCLINATION": 98.7113, "RA_OF_ASC_NODE": 351.9007, "ARG_OF_PERICENTER": 238.7096, "MEAN_ANOMALY": 240.7706, "EPHEMERIS_TYPE": 0, "CLASSIFICATION_TYPE": "U", "NORAD_CAT_ID": 29985, "ELEMENT_SET_NO": 999, "REV_AT_EPOCH": 97204, "BSTAR": 6.9766e-05, "MEAN_MOTION_DOT": 8.1e-07, "MEAN_MOTION_DDOT": 0}, "tle": {"line1": "1 29985U 99025LK  25336.52023910  .00000081  00000+0  69766-4 0  9995", "line2": "2 29985  98.7113 351.9007 0027721 238.7096 240.7706 14.10320620972040"}}, "geometry": {"type": "Point", "coordinates": [171.73762020331372, -2.9331839554263994]}}]}